{
  "type": "FeatureCollection",
  "features": [
    {
      "type": "Feature",
      "properties": { "name": "Marikina City" },
      "geometry": {
        "type": "Polygon",
        "coordinates": [[
          [121.0845,14.6368],
          [121.0951,14.6319],
          [121.1146,14.6404],
          [121.1218,14.6592],
          [121.1114,14.6821],
          [121.0893,14.6882],
          [121.0702,14.6701],
          [121.0725,14.6514],
          [121.0845,14.6368]
        ]]
      }
    }
  ]
}
